#aV2015  4 13  0  0  0.00000000     288 DD+AD WGS84 FIT  NGA
## 1840  86400.00000000   300.00000000 57125 0.0000000000000
+   31     1  2  3  4  5  6  7  8  9 10 11 12 13 14 15 16 17
+         18 19 20 21 22 23 24 25 27 28 29 30 31 32  0  0  0
+          0  0  0  0  0  0  0  0  0  0  0  0  0  0  0  0  0
+          0  0  0  0  0  0  0  0  0  0  0  0  0  0  0  0  0
+          0  0  0  0  0  0  0  0  0  0  0  0  0  0  0  0  0
++         2  2  2  2  2  2  2  2  2  2  2  2  2  2  2  2  2
++         2  2  2  2  2  2  2  2  2  2  2  2  2  2  0  0  0
++         0  0  0  0  0  0  0  0  0  0  0  0  0  0  0  0  0
++         0  0  0  0  0  0  0  0  0  0  0  0  0  0  0  0  0
++         0  0  0  0  0  0  0  0  0  0  0  0  0  0  0  0  0
%c cc cc ccc ccc cccc cccc cccc cccc ccccc ccccc ccccc ccccc
%c cc cc ccc ccc cccc cccc cccc cccc ccccc ccccc ccccc ccccc
%f  0.0000000  0.000000000  0.00000000000  0.000000000000000
%f  0.0000000  0.000000000  0.00000000000  0.000000000000000
%i    0    0    0    0      0      0      0      0         0
%i    0    0    0    0      0      0      0      0         0
/*      NGA, ST. LOUIS,MO.                                  
/*   EPHEMERIS COMPUTED FROM  1 DAYS OF DATA                
/*   EPOCHA SMOOTHER                                       
/* CCCCCCCCCCCCCCCCCCCCCCCCCCCCCCCCCCCCCCCCCCCCCCCCCCCCCCCCC
*  2015  4 13 11 15  0.00000000
P  1 -13315.555587  22820.122184  -1492.639881     -6.837377                    
V  1  -3470.315686    -22.076119  31823.166372      0.004609                    
P  2  18672.148692  -8047.476255 -16482.035350    559.498769                    
V  2  -8857.011792  20148.380163 -19903.786221      0.023339                    
P  3 -11450.420839  13469.644625 -19823.989432    294.510106                    
V  3 -25125.967563  -2093.872307  13041.293895      0.137505                    
P  4 -17430.135564  18318.664905   7352.649569    -11.260065                    
V  4   2078.490700 -10271.280839  29518.370270     -0.010228                    
P  5  25574.427984  -3830.134126   6414.130486   -254.416767                    
V  5   8089.460536   3222.476808 -29912.636537      0.048161                    
P  6  13147.603189   7628.414679 -21780.262591    134.585712                    
V  6 -14618.545836  23473.895638   -613.196991      0.099096                    
P  7  -3236.996418  22209.638874  14008.950606    454.973388                    
V  7 -11610.169569  13593.708949 -24761.045564      0.027720                    
P  8 -18404.017162   3483.529679 -18354.119388     19.472760                    
V  8  14202.314912 -19263.465587 -18298.887477      0.004516                    
P  9   5589.270542  24263.501514  -9232.064761   -136.044002                    
V  9  -7858.506950  -9090.942376 -28692.909009     -0.082223                    
P 10  21597.422440  10110.179300 -12510.487026   -170.750002                    
V 10 -15262.784019   1681.302724 -25367.254761     -0.014432                    
P 11 -11120.630138  22732.763452   7311.801643   -571.094866                    
V 11  -2508.692946 -10923.715875  28270.094719     -0.027189                    
P 12  14637.878299 -11330.691843 -19050.073515    284.451229                    
V 12  23830.849600   3062.186504  16787.182073      0.031124                    
P 13  15373.825472   -762.462964  21481.271367   -105.260880                    
V 13   9649.217389  25868.624424  -6064.254860     -0.034389                    
P 14 -15188.319631 -20002.766968  -8631.338059     71.221014                    
V 14  -2328.553666 -11242.571397  29201.568354     -0.028384                    
P 15   9767.291378 -13425.077707  20584.396582   -243.307095                    
V 15  14405.281116  22281.891808   7980.205260     -0.021741                    
P 16 -25904.311551   1610.992504   6460.674845   -139.096574                    
V 16  -7993.541200  -2321.451858 -30757.509947      0.036015                    
P 17  15099.981611  20738.575368  -6996.769123   -166.115457                    
V 17   1927.581409   9281.732243  30191.619695     -0.018983                    
P 18  -9980.659269 -15199.546032  19941.807742    393.595427                    
V 18  24334.412117   -775.011206  11573.766605      0.028821                    
P 19 -12280.408733   9009.524110  21531.746919   -507.186488                    
V 19 -11169.719015 -25469.371692   4703.625718     -0.012058                    
P 20  26303.307670   1999.128688  -3847.595413    309.804241                    
V 20  -4547.019756   3860.608123 -30398.609901      0.037975                    
P 21  -1441.681453 -21136.005391  16488.166835   -436.133612                    
V 21  12399.055363 -15742.733430 -20329.313555     -0.037491                    
P 22 -20885.720112 -10343.117107  13126.543498    339.211232                    
V 22  16386.909852  -2631.960477  24247.999381      0.042726                    
P 23  -3398.703457  19812.692116 -16995.368354   -101.596617                    
V 23 -12207.374274 -18509.244786 -19408.900747     -0.025053                    
P 24  14658.197532 -21995.989099   1554.308223    -46.565166                    
V 24   1654.620110   3377.017756  31610.036053     -0.006379                    
P 25    453.871276 -14867.558028 -22096.570584    -19.348733                    
V 25  27759.019153   1098.077252     -6.946911     -0.034455                    
P 27 -16898.770165  -1725.199575  20434.186531     64.677406                    
V 27 -11410.216653 -23297.090102 -11289.294820      0.026717                    
P 28  16483.155146  12990.055163  16951.690725    432.660532                    
V 28 -20250.778683  -1146.517256  21274.102178      0.026076                    
P 29  -2145.729820 -23736.871748 -11749.173347    604.053500                    
V 29   8106.279134  12694.727230 -27012.313930      0.022772                    
P 30   5566.250412  16375.930600  20131.112297    -71.764050                    
V 30 -16131.235101  19931.823294 -11801.490062      0.038266                    
P 31 -14836.434288  -4117.066153 -21553.446172    318.713933                    
V 31  15192.250281 -23025.314341  -5691.787943     -0.009772                    
P 32 -23234.430403   5286.503155 -11157.122717   -177.165369                    
V 32 -13888.057312  -4870.151295  27178.782663      0.094834                    
EOF
